#dP2024  5 26  0  0  0.00000000      97 __u+U IGS20 FIT  IAC
## 2316      0.00000000   900.00000000 60456 0.0000000000000
+  119   C06C07C08C09C10C11C12C13C14C16C19C20C21C22C23C24C25
+        C26C27C28C29C30C32C33C34C35C36C37C38C39C40C41C42C43
+        C44C45C46E02E03E04E05E07E08E09E10E11E12E13E14E15E18
+        E19E21E24E25E26E27E30E31E33E34E36G01G02G03G04G05G06
+        G08G09G10G11G12G13G14G15G16G17G18G19G20G21G22G23G24
+        G25G26G27G28G29G30G31G32J02J03J04R01R02R03R04R05R07
+        R08R09R11R12R13R14R15R16R17R18R19R20R21R22R24R25R26
++         7  7  8  7  7  6  6  7  6  7  6  6  5  6  5  6  5
++         6  6  6  6  6  6  5  5  5  6  6  6  6  6  6  5  5
++         6  6  6  4  4  4  4  5  4  4  4  4  4  4  4  4  4
++         4  4  4  4  4  4  4  4  4  4  4  6  3  3  3  3  4
++         3  3  3  3  3  3  3  3  4  3  3  4  3  3  3  3  3
++         3  3  3  3  3  3  3  3 11 11 11  8  7  7  7  7  6
++         6  7  6  6  7  6  6  7  7  7  8  8  6  6  7  8  8
%c M  cc GPS ccc cccc cccc cccc cccc ccccc ccccc ccccc ccccc
%c cc cc ccc ccc cccc cccc cccc cccc ccccc ccccc ccccc ccccc
%f  1.2500000  1.025000000  0.00000000000  0.000000000000000
%f  0.0000000  0.000000000  0.00000000000  0.000000000000000
%i    0    0    0    0      0      0      0      0         0
%i    0    0    0    0      0      0      0      0         0
/* INFORMATION & ANALYSIS CENTER (IAC)            FINAL DATA
/* S/V CLOCKS ARE ALIGNED TO GNSS TIME                      
/* G:C1WC2W R:C1PC2P E:C1XC5X C:C2IC6I J:C1CC2S             
/* PCV:IGS20_2290 OL/AL:FES2004  NONE     YN ORB:CoN CLK:CoN
*  2024 05 26 15  0  0.00000000
PC06   -946.743230  34289.135817  24789.370426    452.475499
PC07 -14225.974179  27415.747952 -28701.250171   -694.686900
PC08 -16219.911212  38279.367594   6352.163576   -151.401585
PC09   4396.831123  38003.976422  18898.420372    200.086278
PC10  -4900.233019  27931.169255 -30966.446790     -0.060580
PC11  17783.099294  -3465.260245  21282.947761    582.010489
PC12  23540.117247  12881.066894   7688.008176   -250.323164
PC13 -10531.368237  38736.269683  12595.199204    436.761645
PC14  25376.855165 -11385.725361  -1750.515631    914.710605
PC16  -3471.651157  32247.614763  27432.743405   -546.921610
PC19 -20344.623243  15842.356588  10740.483587   -913.032814
PC20 -26575.531846   6312.258980  -5811.454653   -506.193660
PC21  17144.537760   8077.870487  20485.049497   -969.683321
PC22  -2093.544894  16867.194133  22137.398744      8.033354
PC23   1574.518929 -27661.031015   3355.308236   -781.721047
PC24  16604.565913  -1817.773704 -22365.996089    915.841900
PC25  12273.223818 -21220.213496 -13360.671276    409.657481
PC26  11142.871398  17834.842564 -18343.717602   -296.797798
PC27 -21265.572405 -18031.085730   1063.323886    318.263104
PC28  -9180.526555 -21316.943421  15495.834187    244.204320
PC29 -11018.582424  11811.307282 -22765.077205    286.584196
PC30 -23434.909434  -4714.244974 -14395.655249    -86.716158
PC32 -17184.370077  -7964.579997 -20487.659140   -632.036821
PC33  20280.792356 -15930.947995 -10623.382256   -963.051414
PC34  22940.829858   3332.682028  15531.693984    442.091976
PC35   9640.743834  20988.846100 -15704.306534    353.627378
PC36 -12771.734582  20898.204982  13393.196189     92.725580
PC37 -10640.109232 -18276.287659  18231.843199   -955.558238
PC38 -18782.895516  37671.058302   -718.859930    157.474435
PC39  -5359.704322  29335.629770  29980.258472     -8.480976
PC40 -20041.828281  20906.696614 -30760.570756    -72.037304
PC41   2954.684369 -17078.088552 -21812.131572   -957.702025
PC42  26383.242470  -5086.739753   7504.495437   -443.850130
PC43  11968.306676 -11162.041491  22589.168557     73.078840
PC44  21866.736736  17317.299293  -1281.264178    484.821286
PC45  -1812.361659  27652.637318  -3189.230042    -88.880702
PC46 -16523.412039   2544.928195  22337.431693   -151.468084
PE02  11093.945415 -24520.652963  12330.907987    130.484287
PE03   3097.483274 -16670.554344 -24259.926704   -116.262211
PE04  18676.859205  15913.952742  16563.405275   -406.235190
PE05  22587.179698  -7615.496547 -17535.676857   4751.256570
PE07 -28957.013426  -6177.012358    188.398650   -122.292451
PE08 -17954.722757 -16059.911117 -17206.745840   -276.881366
PE09  28921.262902   6253.498068    -66.553271   -456.895271
PE10  16447.640162  19249.218968  15320.419309   -627.812199
PE11  17699.363465   8878.776271  21989.987398   2783.369735
PE12  12882.373385  25704.129119   7073.187073  -1055.235767
PE13 -17662.286046  -9493.094979 -21773.041266    -21.822398
PE14  -8605.284739  17820.537047 -22791.745020     49.385654
PE15 -12619.422315 -25953.960710  -6560.432642   -105.157081
PE18 -11026.563483 -18153.252247  17516.773903    154.720652
PE19  -5488.715286  15977.058570  24319.762119      5.948744
PE21 -22323.593765  18634.030153   5539.435003   -596.588351
PE24  20896.840383  -1192.101915 -20951.640343   -783.939815
PE25  22442.498656 -18366.697134  -5928.425572      4.978432
PE26 -12158.838953  12853.364650 -23732.713038    465.602512
PE27 -20964.136594   1546.132238  20838.801272   -359.207034
PE30  -7146.462490 -16374.552200  23591.573983   -340.057834
PE31   7265.144990  16232.259589 -23656.342522    -24.587402
PE33   -107.735087  26736.985791 -12703.005268     12.119619
PE34   -310.429639 -26943.740014  12246.804428   -113.433889
PE36  12307.355187 -12192.639110  23993.845952   -232.478526
PG01  -2209.401406  20587.800261 -16819.237046    268.542104
PG02  17300.995642   4263.386908  20264.776642   -429.254650
PG03  20202.358787  -8681.406520  14652.920165    382.939301
PG04  25656.942240    543.291500  -7098.492836    369.595142
PG05 -14209.694018  -5961.265253 -21820.530624   -174.092008
PG06  -4454.615855 -25415.409512   6104.756665    252.830281
PG08  25778.498664   6385.094031  -3646.608702    198.504025
PG09  18346.304819  -9204.324851 -16965.377319    210.833612
PG10  -7718.194256  22012.754930  12596.943425    -30.129399
PG11 -12056.176329 -22592.034530  -7133.904827   -671.392651
PG12 -20560.564889   5631.163955  15527.834551   -508.718546
PG13 -20595.089003 -13937.520883  -9860.504717    653.410777
PG14  11211.279921 -22255.301283   8915.258184    410.206825
PG15 -26149.678482  -3741.546646  -4126.099750    163.244323
PG16  11564.868206  10123.677903 -22008.023672   -281.393017
PG17   5250.418766 -14369.588634  22138.514601    702.575359
PG18  -8407.949959  16082.449182 -19310.067877   -616.314385
PG19  -5669.791649 -16157.052549  20229.134937    487.515344
PG20  -7494.012446 -15550.845445 -20164.979164    375.183827
PG21  18180.961726  10376.620248  17355.355561    119.317212
PG22   5234.548993 -20925.835923  16107.038213    -18.929589
PG23 -16015.785050  21031.534216    958.777374    234.989582
PG24 -17975.584648  -6648.243402  18133.589698   -472.976894
PG25 -20001.794043  14814.822307   8553.550253    496.376995
PG26   1533.974498  20003.736605 -17374.319222    147.007997
PG27  19200.024224  12975.125184 -13643.241445    -25.735672
PG28   3587.389668  24950.672372   8361.264944   -260.833037
PG29 -21043.793231   5398.701055 -15410.493382   -596.909208
PG30   1258.771312 -23326.512143 -12234.946216   -384.335158
PG31  10094.569273  24207.587769  -2698.690496   -227.690883
PG32  -1464.805531  15254.219633  21912.438593   -617.728917
PJ02 -35582.989094  22589.509138   1974.296609     -0.213451
PJ03 -19836.639341  23590.118613 -24162.388189      0.334469
PJ04 -28284.504289  30294.762894  14170.742706     50.318488
PR01  20361.483915   2694.975912  15119.067721     86.529062
PR02  24966.471634  -5256.318675  -1137.063720    -23.074166
PR03  15447.448311 -11172.122827 -16927.296906    100.890269
PR04  -2111.394552 -10481.076724 -23126.261539    238.197817
PR05 -18581.066226  -4466.492212 -16870.084479    132.077398
PR07 -14610.185794  11307.276028  17609.630609     83.219400
PR08   2546.179054  10549.868566  23147.739548     -4.199157
PR09 -13117.259594   9705.156577  19657.652839    188.736826
PR11  -2717.425810  23402.232416  -9791.063702     23.457046
PR12   8032.446318   9593.015462 -22199.808073     40.584673
PR13  12785.448932  -6888.609907 -20980.326289    -47.748104
PR14  10348.678531 -22505.233713  -6026.622754     26.515468
PR15   1876.509215 -22809.762802  11275.286002     79.435752
PR16  -7859.900512  -9717.619757  22242.121054     25.923383
PR17   2765.315921 -12314.293543  22175.110157     90.232447
PR18  -9883.048039 -20144.806722  12092.867824    143.956663
PR19 -16680.334199 -19129.796496  -2572.270344   -278.026188
PR20 -14959.164539  -4376.329378 -20177.009105   -113.426170
PR21  -3016.776571  12045.679340 -22283.299634   -104.026405
PR22  10030.537175  20753.108575 -10918.781451    109.050401
PR24  15215.210149   2960.467024  20262.949913    -57.354640
PR25  -3307.929773  12538.939594 -21961.373015    -38.601474
PR26   1155.864583  10801.498864  23103.041692     -7.589961
EOF
